{"type": "FeatureCollection", "features": [{"type": "Feature", "properties": {"GEO_ID": "0500000US37119", "STATE": "37", "COUNTY": "119", "NAME": "Mecklenburg", "LSAD": "County", "CENSUSAREA": 523.842}, "geometry": {"type": "Polygon", "coordinates": [[[-80.906417, 35.076608], [-80.906553, 35.076763], [-80.93495, 35.107409], [-80.95787, 35.092639], [-81.041489, 35.044703], [-81.057465, 35.061983], [-81.058029, 35.07319], [-81.057236, 35.086129], [-81.052078, 35.096276], [-81.046524, 35.100617], [-81.036163, 35.103205], [-81.032547, 35.109102], [-81.042758, 35.146042], [-81.005851, 35.156562], [-81.005061, 35.189821], [-81.006196, 35.210301], [-81.013956, 35.220588], [-81.008979, 35.24574], [-80.955388, 35.400833], [-80.94703, 35.487699], [-80.784339, 35.50584], [-80.764255, 35.400226], [-80.755284, 35.394927], [-80.744252, 35.380638], [-80.719625, 35.362842], [-80.708556, 35.355213], [-80.69362, 35.346806], [-80.667274, 35.269014], [-80.665835, 35.268181], [-80.550297, 35.208381], [-80.770385, 35.034234], [-80.840461, 35.001566], [-80.906417, 35.076608]]]}, "id": "37119"}]}